CUTE-1 (CO-55)          
1 27844U 03031E   22317.54527413  .00000315  00000+0  16044-3 0  9994
2 27844  98.6803 323.0001 0010442  35.7453 324.4422 14.22538453  5078
CUBESAT XI-IV (CO-57)   
1 27848U 03031J   22317.48482788  .00000263  00000+0  13842-3 0  9991
2 27848  98.6844 323.4258 0010563  49.3824 310.8271 14.22083401  4845
CUBESAT XI-V            
1 28895U 05043F   22317.33061915  .00001300  00000+0  25303-3 0  9996
2 28895  98.1272  86.6158 0017121  36.2434 323.9925 14.64655122909200
CUTE-1.7+APD II (CO-65) 
1 32785U 08021C   22317.53164135  .00003141  00000+0  32893-3 0  9995
2 32785  97.6784 283.8594 0014367  98.1669 262.1180 14.90223578788685
AAUSAT-II               
1 32788U 08021F   22317.45630169  .00006013  00000+0  50080-3 0  9993
2 32788  97.5512 297.7383 0011266 353.2115   6.8954 14.98953210790745
DELFI-C3 (DO-64)        
1 32789U 08021G   22317.04819848  .00017095  00000+0  84402-3 0  9999
2 32789  97.3281 338.2441 0010227 154.1496 206.0251 15.17900159794439
SEEDS II (CO-66)        
1 32791U 08021J   22317.42642221  .00003922  00000+0  37615-3 0  9991
2 32791  97.6313 289.1034 0014360  57.7304 302.5306 14.93603104789420
SWISSCUBE               
1 35932U 09051B   22317.19863388  .00000929  00000+0  21701-3 0  9991
2 35932  98.5469 177.1600 0006824 318.5400  41.5279 14.57074600697754
BEESAT-1                
1 35933U 09051C   22317.49651723  .00000800  00000+0  18842-3 0  9993
2 35933  98.5402 178.9856 0005249 333.9292  26.1640 14.57065323697870
ITUPSAT1                
1 35935U 09051E   22317.53698944  .00000730  00000+0  17621-3 0  9992
2 35935  98.5503 179.0424 0007599 334.3479  25.7340 14.56159499697575
TISAT 1                 
1 36799U 10035E   22317.34993614  .00003922  00000+0  37617-3 0  9999
2 36799  98.1617 173.5969 0011029 333.3839  26.6812 14.93693554669985
M-CUBED & EXP-1 PRIME   
1 37855U 11061F   22317.49180782  .00013256  00000+0  53928-3 0  9997
2 37855 101.7171 156.0124 0144756 334.8563  24.5653 15.15635889604259
AEROCUBE 4.5A           
1 38767U 12048K   22317.45258274  .00007688  00000+0  52886-3 0  9998
2 38767  64.6664   2.5530 0163057 221.7135 137.1454 14.96359804173064
AEROCUBE 4.5B           
1 38768U 12048L   22317.43793091  .00008853  00000+0  54710-3 0  9991
2 38768  64.6658 313.5529 0146998 217.1082 141.9803 15.01800211173506
STRAND-1                
1 39090U 13009E   22317.48051073  .00000286  00000+0  11459-3 0  9995
2 39090  98.3944 151.6889 0008886 180.4793 179.6386 14.35367130508770
BRITE-AUSTRIA           
1 39091U 13009F   22317.46792065  .00000190  00000+0  81188-4 0  9998
2 39091  98.3964 150.8690 0010202 188.1758 171.9264 14.35327519508806
SOMP                    
1 39134U 13015E   22317.27814251  .00025434  00000+0  76506-3 0  9999
2 39134  64.8596 291.9147 0031471 259.8242  99.9342 15.33844550529630
BEESAT-3                
1 39135U 13015F   22317.35423122  .00016532  00000+0  60347-3 0  9997
2 39135  64.8648 331.6947 0037009 262.2299  97.4630 15.27631027528821
BEESAT-2                
1 39136U 13015G   22317.44260266  .00014124  00000+0  54382-3 0  9993
2 39136  64.8742 340.5339 0024938 292.8916  66.9582 15.26311502528620
NEE-01 PEGASO           
1 39151U 13018B   22317.27425113  .00001885  00000+0  24746-3 0  9999
2 39151  97.9997  62.5272 0017685 130.3718 229.9042 14.81377846515700
ESTCUBE 1               
1 39161U 13021C   22317.18044686  .00001912  00000+0  30313-3 0  9994
2 39161  97.8985  30.4831 0008544 311.4575  48.5903 14.73281003511368
POPACS 1                
1 39268U 13055D   22317.37206548  .00019389  00000+0  46812-3 0  9995
2 39268  80.9953  78.7462 0549916 109.1818 256.9720 14.56064499474925
POPACS 2                
1 39269U 13055E   22317.46780975  .00009743  00000+0  26572-3 0  9991
2 39269  81.0094 140.1751 0634205 268.4747  84.3751 14.35832790471541
POPACS 3                
1 39270U 13055F   22316.63721953  .00010103  00000+0  30248-3 0  9999
2 39270  81.0135 176.6571 0682328  11.6661 349.9451 14.23632541449704
ZACUBE-1 (TSHEPISOSAT)  
1 39417U 13066B   22317.45446204  .00002985  00000+0  36415-3 0  9999
2 39417  97.6574 282.4226 0055288 276.3956  83.0964 14.82999403485204
WNISAT-1                
1 39423U 13066H   22317.25952787  .00001032  00000+0  21056-3 0  9999
2 39423  97.7268 187.6038 0174968  33.0256 328.1714 14.53656560476069
TRITON-1                
1 39427U 13066M   22317.35368208  .00001556  00000+0  24679-3 0  9998
2 39427  97.8224 246.7583 0111642 147.9206 212.8860 14.69442397480646
DELFI-N3XT              
1 39428U 13066N   22317.37497767  .00002551  00000+0  39141-3 0  9990
2 39428  97.8221 245.4327 0115983 160.6715 199.8946 14.69981948480408
GOMX-1                  
1 39430U 13066Q   22317.41172278  .00003094  00000+0  55484-3 0  9996
2 39430  97.7964 216.0273 0147142 295.4466  63.1517 14.60629308478033
CUBEBUG-2 (LO-74)       
1 39440U 13066AA  22317.40621602  .00003186  00000+0  43095-3 0  9993
2 39440  97.7460 268.8755 0078383   9.4762 350.7906 14.77568456482279
NEE-02 KRYSAOR          
1 39441U 13066AB  22317.40675556  .00002173  00000+0  30555-3 0  9993
2 39441  97.7568 265.9648 0080778  23.9489 336.5446 14.76138495482003
FUNCUBE-1 (AO-73)       
1 39444U 13066AE  22317.42473701  .00002917  00000+0  34601-3 0  9998
2 39444  97.6448 284.8272 0053854 263.3047  96.2037 14.84223910483610
UWE-3                   
1 39446U 13066AG  22317.43990381  .00003239  00000+0  41715-3 0  9991
2 39446  97.7067 275.2562 0066976 324.8244  34.8556 14.80180226482494
AEROCUBE 5A             
1 39465U 13072D   22317.51681992  .00056939  00000+0  23262-2 0  9994
2 39465 120.4805 154.1633 0169677  74.6673 287.3080 15.11719421172023
AEROCUBE 5B             
1 39466U 13072E   22317.56849456  .01221244  00000+0  75035-2 0  9990
2 39466 120.4430 266.9168 0066371 104.3995 256.4480 15.71231274173593
BRITE-CA1 (TORONTO)     
1 40020U 14033L   22317.36975506  .00001164  00000+0  20321-3 0  9995
2 40020  97.7972 108.9425 0087187 147.8684 212.7878 14.67269897449491
DUCHIFAT-1              
1 40021U 14033M   22317.42764492  .00005778  00000+0  54622-3 0  9999
2 40021  98.0313 270.5569 0009977 270.0337  89.9739 14.94060372456939
NANOSATC-BR1            
1 40024U 14033Q   22317.42108402  .00004062  00000+0  39903-3 0  9995
2 40024  98.0023 263.0987 0009738 278.9456  81.0660 14.92711268456194
QB50P1                  
1 40025U 14033R   22317.46204564  .00003950  00000+0  40189-3 0  9999
2 40025  97.9736 256.1617 0010227 290.6509  69.3612 14.91310614455961
QB50P2                  
1 40032U 14033Y   22317.54710086  .00003271  00000+0  33914-3 0  9991
2 40032  97.9475 251.0385 0009827 287.6025  72.4119 14.90676883455822
PERSEUS-M2              
1 40037U 14033AD  22317.33286460  .00001490  00000+0  17064-3 0  9996
2 40037  97.8986 238.7285 0013096 314.3268  45.6874 14.87421003455259
PERSEUS-M1              
1 40039U 14033AF  22317.36711377  .00001434  00000+0  16601-3 0  9995
2 40039  97.8869 236.2378 0012921 313.5602  46.4540 14.87020362455135
POLYITAN-1              
1 40042U 14033AJ  22317.46755380  .00004736  00000+0  47811-3 0  9997
2 40042  97.9846 257.5787 0012151 281.1753  78.8099 14.91513184455858
TIGRISAT                
1 40043U 14033AK  22317.45624815  .00001279  00000+0  19039-3 0  9995
2 40043  97.6553 138.7283 0059667  34.7080 325.8000 14.75360935451590
AEROCUBE 6A             
1 40045U 14033AM  22317.48852245  .00001858  00000+0  26511-3 0  9996
2 40045  97.6577 147.9611 0057036  21.4877 338.8709 14.76779435451770
AEROCUBE 6B             
1 40046U 14033AN  22317.08294336  .00002284  00000+0  32015-3 0  9994
2 40046  97.6503 145.9869 0055762  20.8132 339.5331 14.77359966451722
UKUBE-1                 
1 40074U 14037F   22317.33211801  .00004160  00000+0  48192-3 0  9991
2 40074  98.3613 205.6665 0004699 150.3655 209.7811 14.86061326452174
BRITE-PL2 (HEWELIUSZ)   
1 40119U 14049B   22317.49887572  .00001539  00000+0  18419-3 0  9991
2 40119  97.8845  51.6240 0018371 113.0883 247.2271 14.85484046446137
FIREBIRD 4              
1 40378U 15003C   22317.35339943  .00025856  00000+0  65127-3 0  9994
2 40378  99.0784 216.1564 0085772 237.6982 121.5928 15.36122349431228
GRIFEX                  
1 40379U 15003D   22317.23783453  .00018057  00000+0  58267-3 0  9993
2 40379  99.0874 200.0738 0106018 287.4577  71.5090 15.26860471430298
CP10 (EXOCUBE)          
1 40380U 15003E   22317.44507126  .00012971  00000+0  46852-3 0  9995
2 40380  99.0981 192.3289 0116558 313.8656  45.2990 15.22395567429813
TIANWANG 1A (TW-1A)     
1 40928U 15051D   22317.31094044  .00180256  00000+0  87348-3 0  9999
2 40928  97.0164 340.1478 0006372 160.5966 260.8990 15.81984165401557
EXACTVIEW 9             
1 40936U 15052G   22317.17470073  .00002148  00000+0  20607-3 0  9991
2 40936   6.0017 191.8980 0009693 104.3684 255.7519 14.77487872385248
AEROCUBE 5C             
1 40965U 15058B   22317.45984945  .00001623  00000+0  20181-3 0  9992
2 40965  64.7796 359.0688 0173016 150.4455 210.6568 14.76206914170956
AEROCUBE 7              
1 40966U 15058C   22317.46480282  .00001992  00000+0  24059-3 0  9996
2 40966  64.7794 355.8224 0170638 150.0154 211.0859 14.76904135170963
ATHENOXAT 1             
1 41168U 15077C   22316.98059970  .00028583  00000+0  10439-2 0  9995
2 41168  14.9828  66.3347 0008458 171.7102 333.1991 15.25921473382985
GALASSIA                
1 41170U 15077E   22316.98510940  .00017586  00000+0  67165-3 0  9997
2 41170  14.9883  58.9836 0009925 197.7851 162.2124 15.23913639382889
VELOX-II                
1 41171U 15077F   22317.20066560  .00011760  00000+0  51997-3 0  9992
2 41171  14.9897 139.0250 0007535  26.3216 333.7488 15.18359387382238
HORYU-4                 
1 41340U 16012D   22317.19249552  .00004836  00000+0  33136-3 0  9993
2 41340  31.0030 128.5856 0012653 243.5987 116.3351 15.04405704370135
